{
  "norad_id": 63984,
  "name": "SCS-01 C",
  "history": [
    {
      "epoch": "2026-03-28T20:40:11.194752Z",
      "apogee_km": 518.1573638408008,
      "perigee_km": 485.0678321992036,
      "latitude_deg": 2.838354539001848e-06,
      "longitude_deg": 26.059041373801772,
      "height_km": 506.10108561550993,
      "semi_major_axis_km": 6879.749598020002,
      "eccentricity": 0.00240485,
      "inclination_deg": 97.3715,
      "raan_deg": 162.3813,
      "arg_perigee_deg": 265.1496,
      "mean_anomaly_deg": 94.6994,
      "mean_motion_rev_day": 15.21401411
    },
    {
      "epoch": "2026-03-29T04:33:44.131104Z",
      "apogee_km": 518.1210110582579,
      "perigee_km": 485.02822223985277,
      "latitude_deg": 4.747947826921443e-06,
      "longitude_deg": -92.330426360703,
      "height_km": 506.39646713520193,
      "semi_major_axis_km": 6879.711616649055,
      "eccentricity": 0.0024051,
      "inclination_deg": 97.3715,
      "raan_deg": 162.7032,
      "arg_perigee_deg": 263.9911,
      "mean_anomaly_deg": 95.8584,
      "mean_motion_rev_day": 15.2141401
    },
    {
      "epoch": "2026-03-30T04:14:21.919776Z",
      "apogee_km": 518.0823617245387,
      "perigee_km": 484.9032830172091,
      "latitude_deg": 3.452579064431938e-05,
      "longitude_deg": -87.49396892961192,
      "height_km": 507.3635506767147,
      "semi_major_axis_km": 6879.629822370874,
      "eccentricity": 0.0024114,
      "inclination_deg": 97.3713,
      "raan_deg": 163.6695,
      "arg_perigee_deg": 260.3515,
      "mean_anomaly_deg": 99.4997,
      "mean_motion_rev_day": 15.21441143
    },
    {
      "epoch": "2026-03-30T05:49:04.376928Z",
      "apogee_km": 518.0877632007578,
      "perigee_km": 484.8860103607649,
      "latitude_deg": 1.824986466531767e-05,
      "longitude_deg": -111.17129662149895,
      "height_km": 507.4302611411635,
      "semi_major_axis_km": 6879.6238867807615,
      "eccentricity": 0.00241305,
      "inclination_deg": 97.3713,
      "raan_deg": 163.7339,
      "arg_perigee_deg": 260.1038,
      "mean_anomaly_deg": 99.7474,
      "mean_motion_rev_day": 15.21443112
    },
    {
      "epoch": "2026-03-30T13:42:36.591840Z",
      "apogee_km": 518.0866455294945,
      "perigee_km": 484.82848393332097,
      "latitude_deg": 2.7291179619809796e-05,
      "longitude_deg": 130.44244929414452,
      "height_km": 507.74804425239995,
      "semi_major_axis_km": 6879.594564731407,
      "eccentricity": 0.00241716,
      "inclination_deg": 97.3713,
      "raan_deg": 164.056,
      "arg_perigee_deg": 258.9051,
      "mean_anomaly_deg": 100.9467,
      "mean_motion_rev_day": 15.21452839
    },
    {
      "epoch": "2026-03-30T20:01:26.244192Z",
      "apogee_km": 518.0739107787203,
      "perigee_km": 484.79618246623886,
      "latitude_deg": 7.97044205559341e-05,
      "longitude_deg": 35.733959818106825,
      "height_km": 507.9942125460913,
      "semi_major_axis_km": 6879.572046622479,
      "eccentricity": 0.00241859,
      "inclination_deg": 97.3713,
      "raan_deg": 164.3137,
      "arg_perigee_deg": 257.968,
      "mean_anomaly_deg": 101.8846,
      "mean_motion_rev_day": 15.21460309
    },
    {
      "epoch": "2026-03-31T19:42:01.503072Z",
      "apogee_km": 518.0287842338385,
      "perigee_km": 484.6852526253142,
      "latitude_deg": 1.9432469336006907e-05,
      "longitude_deg": 40.58079922248736,
      "height_km": 508.9471647836402,
      "semi_major_axis_km": 6879.494018429576,
      "eccentricity": 0.0024234,
      "inclination_deg": 97.3712,
      "raan_deg": 165.2798,
      "arg_perigee_deg": 254.3454,
      "mean_anomaly_deg": 105.5108,
      "mean_motion_rev_day": 15.21486194
    },
    {
      "epoch": "2026-04-01T19:22:35.327712Z",
      "apogee_km": 517.9436765257951,
      "perigee_km": 484.62114478446347,
      "latitude_deg": 3.2193436744551245e-05,
      "longitude_deg": 45.43362149570157,
      "height_km": 509.902021875318,
      "semi_major_axis_km": 6879.419410655129,
      "eccentricity": 0.0024219,
      "inclination_deg": 97.371,
      "raan_deg": 166.2459,
      "arg_perigee_deg": 250.6262,
      "mean_anomaly_deg": 109.2356,
      "mean_motion_rev_day": 15.21510945
    },
    {
      "epoch": "2026-04-02T19:03:07.494336Z",
      "apogee_km": 517.8210676820827,
      "perigee_km": 484.5101086895693,
      "latitude_deg": -1.4833058502396898e-05,
      "longitude_deg": 50.29337831979312,
      "height_km": 510.76884926579106,
      "semi_major_axis_km": 6879.302588185826,
      "eccentricity": 0.0024211,
      "inclination_deg": 97.3706,
      "raan_deg": 167.212,
      "arg_perigee_deg": 246.9937,
      "mean_anomaly_deg": 112.8745,
      "mean_motion_rev_day": 15.21549702
    },
    {
      "epoch": "2026-04-02T22:12:31.608576Z",
      "apogee_km": 517.8125245062065,
      "perigee_km": 484.4865089046789,
      "latitude_deg": 7.210505068033084e-05,
      "longitude_deg": 2.9421502309035352,
      "height_km": 510.8855835219197,
      "semi_major_axis_km": 6879.286516705442,
      "eccentricity": 0.0024222,
      "inclination_deg": 97.3706,
      "raan_deg": 167.3409,
      "arg_perigee_deg": 246.5083,
      "mean_anomaly_deg": 113.3608,
      "mean_motion_rev_day": 15.21555034
    },
    {
      "epoch": "2026-04-03T20:18:19.336896Z",
      "apogee_km": 517.768182172229,
      "perigee_km": 484.31199232610015,
      "latitude_deg": 4.001919026015377e-05,
      "longitude_deg": 31.48761159254723,
      "height_km": 511.67614807545067,
      "semi_major_axis_km": 6879.177087249164,
      "eccentricity": 0.0024317,
      "inclination_deg": 97.3701,
      "raan_deg": 168.2427,
      "arg_perigee_deg": 243.2047,
      "mean_anomaly_deg": 116.6702,
      "mean_motion_rev_day": 15.2159134
    },
    {
      "epoch": "2026-04-04T19:58:47.065152Z",
      "apogee_km": 517.7407994019704,
      "perigee_km": 484.1571017911583,
      "latitude_deg": -1.0124453804375749e-05,
      "longitude_deg": 36.36591105489257,
      "height_km": 512.5190134090205,
      "semi_major_axis_km": 6879.0859505965645,
      "eccentricity": 0.002441,
      "inclination_deg": 97.3698,
      "raan_deg": 169.2088,
      "arg_perigee_deg": 239.6922,
      "mean_anomaly_deg": 120.1899,
      "mean_motion_rev_day": 15.21621578
    },
    {
      "epoch": "2026-04-05T13:20:26.341152Z",
      "apogee_km": 517.6929538635668,
      "perigee_km": 484.07188403384407,
      "latitude_deg": -4.057906698950295e-05,
      "longitude_deg": 135.94797657851447,
      "height_km": 513.1157350131036,
      "semi_major_axis_km": 6879.019418948706,
      "eccentricity": 0.00244374,
      "inclination_deg": 97.3696,
      "raan_deg": 169.9175,
      "arg_perigee_deg": 237.079,
      "mean_anomaly_deg": 122.8095,
      "mean_motion_rev_day": 15.21643653
    },
    {
      "epoch": "2026-04-05T19:39:13.164768Z",
      "apogee_km": 517.6817327846384,
      "perigee_km": 484.04342484423614,
      "latitude_deg": 4.80743158046869e-05,
      "longitude_deg": 41.251300337425356,
      "height_km": 513.3402246309897,
      "semi_major_axis_km": 6878.999578814437,
      "eccentricity": 0.002445,
      "inclination_deg": 97.3696,
      "raan_deg": 170.1752,
      "arg_perigee_deg": 236.1025,
      "mean_anomaly_deg": 123.7886,
      "mean_motion_rev_day": 15.21650236
    },
    {
      "epoch": "2026-04-06T05:07:23.227392Z",
      "apogee_km": 517.6647336645647,
      "perigee_km": 483.99878539667134,
      "latitude_deg": -5.128487149306306e-05,
      "longitude_deg": -100.79301231531579,
      "height_km": 513.681323390185,
      "semi_major_axis_km": 6878.968759530618,
      "eccentricity": 0.00244702,
      "inclination_deg": 97.3696,
      "raan_deg": 170.5617,
      "arg_perigee_deg": 234.5977,
      "mean_anomaly_deg": 125.2973,
      "mean_motion_rev_day": 15.21660462
    },
    {
      "epoch": "2026-04-07T12:41:15.237312Z",
      "apogee_km": 517.6150001609058,
      "perigee_km": 483.8755958433121,
      "latitude_deg": 2.022332799403098e-05,
      "longitude_deg": 145.7323612009424,
      "height_km": 514.747323735103,
      "semi_major_axis_km": 6878.882298002109,
      "eccentricity": 0.00245239,
      "inclination_deg": 97.3694,
      "raan_deg": 171.8501,
      "arg_perigee_deg": 229.7395,
      "mean_anomaly_deg": 130.1697,
      "mean_motion_rev_day": 15.21689151
    },
    {
      "epoch": "2026-04-07T19:00:01.373184Z",
      "apogee_km": 517.6090464532372,
      "perigee_km": 483.84483069713406,
      "latitude_deg": -3.2906037253678495e-05,
      "longitude_deg": 51.03857634227419,
      "height_km": 514.9538205952684,
      "semi_major_axis_km": 6878.863938575185,
      "eccentricity": 0.0024542,
      "inclination_deg": 97.3694,
      "raan_deg": 172.1078,
      "arg_perigee_deg": 228.7696,
      "mean_anomaly_deg": 131.1425,
      "mean_motion_rev_day": 15.21695243
    },
    {
      "epoch": "2026-04-08T15:31:00.814080Z",
      "apogee_km": 517.6264868663202,
      "perigee_km": 483.73112199000025,
      "latitude_deg": 1.665780135451611e-05,
      "longitude_deg": 103.2857137783333,
      "height_km": 515.6096098938636,
      "semi_major_axis_km": 6878.81580442816,
      "eccentricity": 0.00246375,
      "inclination_deg": 97.3692,
      "raan_deg": 172.9452,
      "arg_perigee_deg": 225.7321,
      "mean_anomaly_deg": 134.1894,
      "mean_motion_rev_day": 15.21711215
    },
    {
      "epoch": "2026-04-09T19:55:26.518656Z",
      "apogee_km": 517.6251246356696,
      "perigee_km": 483.5945881876296,
      "latitude_deg": -6.054027024092435e-05,
      "longitude_deg": 37.17157800967902,
      "height_km": 516.4616012308443,
      "semi_major_axis_km": 6878.746856411649,
      "eccentricity": 0.0024736,
      "inclination_deg": 97.3692,
      "raan_deg": 174.1048,
      "arg_perigee_deg": 221.4712,
      "mean_anomaly_deg": 138.4647,
      "mean_motion_rev_day": 15.21734094
    }
  ]
}